{
  "type": "FeatureCollection",
  "features": [
    {
      "type": "Feature",
      "properties": {
        "norad_id": 35670,
        "name": "COSMOS 2251 DEB",
        "group": "cosmos-2251-debris",
        "lat": 70.66372741111034,
        "lon": 179.49330798260735,
        "alt_km": 576.3892385514164,
        "timestamp": "2025-12-17T10:52:54.748814+00:00",
        "meta_object_name": "COSMOS 2251 DEB",
        "meta_object_id": "1993-036APM",
        "meta_epoch": "2025-12-14T21:21:55.582560",
        "meta_mean_motion": 14.93987644,
        "meta_eccentricity": 0.0037863,
        "meta_inclination": 73.8951,
        "meta_ra_of_asc_node": 60.1197,
        "meta_arg_of_pericenter": 20.3241,
        "meta_mean_anomaly": 339.9438,
        "meta_ephemeris_type": 0,
        "meta_classification_type": "U",
        "meta_norad_cat_id": 35670,
        "meta_element_set_no": 999,
        "meta_rev_at_epoch": 87759,
        "meta_bstar": 0.00068268578,
        "meta_mean_motion_dot": 7.347e-05,
        "meta_mean_motion_ddot": 0,
        "tle_line1": "1 35670U 93036APM 25348.89022665  .00007347  00000+0  68269-3 0  9996",
        "tle_line2": "2 35670  73.8951  60.1197 0037863  20.3241 339.9438 14.93987644877599"
      },
      "geometry": {
        "type": "Point",
        "coordinates": [
          179.49330798260735,
          70.66372741111034
        ]
      }
    },
    {
      "type": "Feature",
      "properties": {
        "norad_id": 35671,
        "name": "COSMOS 2251 DEB",
        "group": "cosmos-2251-debris",
        "lat": 51.89391905508802,
        "lon": -130.9578786871412,
        "alt_km": 739.9902567883937,
        "timestamp": "2025-12-17T10:52:54.748824+00:00",
        "meta_object_name": "COSMOS 2251 DEB",
        "meta_object_id": "1993-036APN",
        "meta_epoch": "2025-12-16T23:31:03.510336",
        "meta_mean_motion": 14.4835599,
        "meta_eccentricity": 0.00415416,
        "meta_inclination": 74.0175,
        "meta_ra_of_asc_node": 71.3641,
        "meta_arg_of_pericenter": 244.8246,
        "meta_mean_anomaly": 292.6764,
        "meta_ephemeris_type": 0,
        "meta_classification_type": "U",
        "meta_norad_cat_id": 35671,
        "meta_element_set_no": 999,
        "meta_rev_at_epoch": 86824,
        "meta_bstar": 0.00019011227,
        "meta_mean_motion_dot": 6.9e-06,
        "meta_mean_motion_ddot": 0,
        "tle_line1": "1 35671U 93036APN 25350.97990174  .00000690  00000+0  19011-3 0  9993",
        "tle_line2": "2 35671  74.0175  71.3641 0041541 244.8246 292.6764 14.48355990868247"
      },
      "geometry": {
        "type": "Point",
        "coordinates": [
          -130.9578786871412,
          51.89391905508802
        ]
      }
    },
    {
      "type": "Feature",
      "properties": {
        "norad_id": 35674,
        "name": "COSMOS 2251 DEB",
        "group": "cosmos-2251-debris",
        "lat": 70.0333147482508,
        "lon": 75.73428238583917,
        "alt_km": 728.3066463098075,
        "timestamp": "2025-12-17T10:52:54.748834+00:00",
        "meta_object_name": "COSMOS 2251 DEB",
        "meta_object_id": "1993-036APR",
        "meta_epoch": "2025-12-15T15:29:32.958240",
        "meta_mean_motion": 14.54257795,
        "meta_eccentricity": 0.00961311,
        "meta_inclination": 74.0597,
        "meta_ra_of_asc_node": 311.022,
        "meta_arg_of_pericenter": 355.1277,
        "meta_mean_anomaly": 4.8939,
        "meta_ephemeris_type": 0,
        "meta_classification_type": "U",
        "meta_norad_cat_id": 35674,
        "meta_element_set_no": 999,
        "meta_rev_at_epoch": 86153,
        "meta_bstar": 0.0013284232,
        "meta_mean_motion_dot": 5.963e-05,
        "meta_mean_motion_ddot": 0,
        "tle_line1": "1 35674U 93036APR 25349.64552035  .00005963  00000+0  13284-2 0  9991",
        "tle_line2": "2 35674  74.0597 311.0220 0096131 355.1277   4.8939 14.54257795861533"
      },
      "geometry": {
        "type": "Point",
        "coordinates": [
          75.73428238583917,
          70.0333147482508
        ]
      }
    },
    {
      "type": "Feature",
      "properties": {
        "norad_id": 35701,
        "name": "COSMOS 2251 DEB",
        "group": "cosmos-2251-debris",
        "lat": -59.865676970167854,
        "lon": 144.07454486044156,
        "alt_km": 1002.8734406655203,
        "timestamp": "2025-12-17T10:52:54.748844+00:00",
        "meta_object_name": "COSMOS 2251 DEB",
        "meta_object_id": "1993-036APW",
        "meta_epoch": "2025-12-06T05:57:57.623904",
        "meta_mean_motion": 13.80843435,
        "meta_eccentricity": 0.02897209,
        "meta_inclination": 74.0028,
        "meta_ra_of_asc_node": 313.2955,
        "meta_arg_of_pericenter": 164.0681,
        "meta_mean_anomaly": 196.98,
        "meta_ephemeris_type": 0,
        "meta_classification_type": "U",
        "meta_norad_cat_id": 35701,
        "meta_element_set_no": 999,
        "meta_rev_at_epoch": 62069,
        "meta_bstar": 0.0021223911,
        "meta_mean_motion_dot": 3.05e-05,
        "meta_mean_motion_ddot": 0,
        "tle_line1": "1 35701U 93036APW 25340.24858361  .00003050  00000+0  21224-2 0  9998",
        "tle_line2": "2 35701  74.0028 313.2955 0289720 164.0681 196.9800 13.80843435620696"
      },
      "geometry": {
        "type": "Point",
        "coordinates": [
          144.07454486044156,
          -59.865676970167854
        ]
      }
    },
    {
      "type": "Feature",
      "properties": {
        "norad_id": 35703,
        "name": "COSMOS 2251 DEB",
        "group": "cosmos-2251-debris",
        "lat": -43.558330109739764,
        "lon": 17.54439116744259,
        "alt_km": 640.9256759791297,
        "timestamp": "2025-12-17T10:52:54.748854+00:00",
        "meta_object_name": "COSMOS 2251 DEB",
        "meta_object_id": "1993-036APY",
        "meta_epoch": "2025-12-15T20:25:28.556544",
        "meta_mean_motion": 14.90392841,
        "meta_eccentricity": 0.00646354,
        "meta_inclination": 74.0432,
        "meta_ra_of_asc_node": 36.5378,
        "meta_arg_of_pericenter": 105.3877,
        "meta_mean_anomaly": 255.4458,
        "meta_ephemeris_type": 0,
        "meta_classification_type": "U",
        "meta_norad_cat_id": 35703,
        "meta_element_set_no": 999,
        "meta_rev_at_epoch": 66662,
        "meta_bstar": 0.00039261957,
        "meta_mean_motion_dot": 3.941e-05,
        "meta_mean_motion_ddot": 0,
        "tle_line1": "1 35703U 93036APY 25349.85102496  .00003941  00000+0  39262-3 0  9998",
        "tle_line2": "2 35703  74.0432  36.5378 0064635 105.3877 255.4458 14.90392841666627"
      },
      "geometry": {
        "type": "Point",
        "coordinates": [
          17.54439116744259,
          -43.558330109739764
        ]
      }
    },
    {
      "type": "Feature",
      "properties": {
        "norad_id": 35705,
        "name": "COSMOS 2251 DEB",
        "group": "cosmos-2251-debris",
        "lat": 26.74301227768182,
        "lon": -61.379180173674825,
        "alt_km": 646.83787010578,
        "timestamp": "2025-12-17T10:52:54.748865+00:00",
        "meta_object_name": "COSMOS 2251 DEB",
        "meta_object_id": "1993-036AQA",
        "meta_epoch": "2025-12-13T16:30:25.570944",
        "meta_mean_motion": 14.72285684,
        "meta_eccentricity": 0.00330748,
        "meta_inclination": 74.2763,
        "meta_ra_of_asc_node": 133.9994,
        "meta_arg_of_pericenter": 83.0917,
        "meta_mean_anomaly": 277.4017,
        "meta_ephemeris_type": 0,
        "meta_classification_type": "U",
        "meta_norad_cat_id": 35705,
        "meta_element_set_no": 999,
        "meta_rev_at_epoch": 85940,
        "meta_bstar": 0.003032246,
        "meta_mean_motion_dot": 0.00019351,
        "meta_mean_motion_ddot": 0,
        "tle_line1": "1 35705U 93036AQA 25347.68779596  .00019351  00000+0  30322-2 0  9999",
        "tle_line2": "2 35705  74.2763 133.9994 0033074  83.0917 277.4017 14.72285684859405"
      },
      "geometry": {
        "type": "Point",
        "coordinates": [
          -61.379180173674825,
          26.74301227768182
        ]
      }
    },
    {
      "type": "Feature",
      "properties": {
        "norad_id": 35706,
        "name": "COSMOS 2251 DEB",
        "group": "cosmos-2251-debris",
        "lat": 42.00320251480043,
        "lon": 70.10653884505054,
        "alt_km": 877.2088355739206,
        "timestamp": "2025-12-17T10:52:54.748875+00:00",
        "meta_object_name": "COSMOS 2251 DEB",
        "meta_object_id": "1993-036AQB",
        "meta_epoch": "2025-12-16T22:21:53.665632",
        "meta_mean_motion": 13.65932979,
        "meta_eccentricity": 0.03403018,
        "meta_inclination": 73.8894,
        "meta_ra_of_asc_node": 55.8826,
        "meta_arg_of_pericenter": 104.8936,
        "meta_mean_anomaly": 259.0123,
        "meta_ephemeris_type": 0,
        "meta_classification_type": "U",
        "meta_norad_cat_id": 35706,
        "meta_element_set_no": 999,
        "meta_rev_at_epoch": 62119,
        "meta_bstar": 0.00061499852,
        "meta_mean_motion_dot": 7.32e-06,
        "meta_mean_motion_ddot": 0,
        "tle_line1": "1 35706U 93036AQB 25350.93187113  .00000732  00000+0  61500-3 0  9996",
        "tle_line2": "2 35706  73.8894  55.8826 0340301 104.8936 259.0123 13.65932979621193"
      },
      "geometry": {
        "type": "Point",
        "coordinates": [
          70.10653884505054,
          42.00320251480043
        ]
      }
    }
  ]
}